#dP2024  9 27 18  0  0.00000000      96 __u+U IGS20 EXT  IAC
## 2333 496800.00000000   900.00000000 60580 0.7500000000000
+   53   G01G02G03G04G05G06G07G08G09G10G11G12G13G14G15G16G17
+        G18G19G20G21G22G23G24G25G26G27G28G29G30G32R01R02R03
+        R04R05R07R08R09R11R12R14R15R16R17R18R19R20R21R22R24
+        R25R26  0  0  0  0  0  0  0  0  0  0  0  0  0  0  0
+          0  0  0  0  0  0  0  0  0  0  0  0  0  0  0  0  0
++        12  7  6  7  8  8  7  7  6  6  8  7  7  7  7  6  7
++         8  6  8  6  6  6  9  6  7  7  7  7  7  7  8  9  7
++         7  7  8  8  8  7  9  8  7  8  6  9  9  9  6  6  8
++         8  9  0  0  0  0  0  0  0  0  0  0  0  0  0  0  0
++         0  0  0  0  0  0  0  0  0  0  0  0  0  0  0  0  0
%c M  cc GPS ccc cccc cccc cccc cccc ccccc ccccc ccccc ccccc
%c cc cc ccc ccc cccc cccc cccc cccc ccccc ccccc ccccc ccccc
%f  0.0000000  0.000000000  0.00000000000  0.000000000000000
%f  0.0000000  0.000000000  0.00000000000  0.000000000000000
%i    0    0    0    0      0      0      0      0         0
%i    0    0    0    0      0      0      0      0         0
/* IAC                                ULTRA-RAPID PREDICTION
/* S/V CLOCKS ARE ALIGNED TO GNSS TIME                      
/* G:C1WC2W R:C1PC2P E:C1XC5X C:C2IC6I J:C1CC2S             
/* PCV:IGS20_2317 OL/AL:FES2004  NONE     YN ORB:CoN CLK:CoN
*  2024 09 28 10 30  0.00000000
PG01 -11174.000999  11994.677338  20452.373508    185.836992
PG02  15037.354477  13188.557747 -17170.957925   -348.633215
PG03  12777.263465  22332.130702   6652.972124    552.920968
PG04   8370.824162  13027.295243  21577.224027    451.947116
PG05  -4062.650809 -24683.022731   8644.097884   -188.058614
PG06  20915.578703  -6238.323197  15278.706564     -0.183201
PG07  25682.388869   7046.979714   3592.027458    -32.910864
PG08  -1101.573361  20670.820053 -16505.859528    367.353008
PG09  16361.352345   2680.792746  20668.497270    375.531823
PG10 -13189.852552   6280.263029 -21954.953000   -140.054593
PG11   6705.280273 -13847.171295  21678.534961   -739.209134
PG12  -9502.175422 -24580.530536   3211.158038   -541.312905
PG13  10766.713704 -20953.997806 -12255.992751    678.812524
PG14  15579.614761  -2187.883825 -21370.476627    505.597641
PG15  -2004.776602 -20795.351588 -16829.241442    209.460314
PG16  -2138.772915  23330.458975  11731.649117   -169.106492
PG17  21175.083254 -11980.231113 -10441.791891    613.078178
PG18 -25877.559756  -6253.434561   1849.396958   -655.703321
PG19  20147.270489 -16710.914350  -2982.459465    543.777519
PG20   3048.305500 -19617.418231  17785.065527    370.190660
PG21   9581.101589  14658.991882 -19858.906007    100.870714
PG22  11840.970651 -11336.978259 -20550.607737    -66.149748
PG23 -16861.147697  -8037.908044 -18940.229551    329.984505
PG24 -12694.185326 -14760.075332 -18687.301106   -486.110125
PG25 -16372.422133 -16225.804842  13079.348889    499.619252
PG26  -9234.684692  14901.843104  19688.562331     68.660388
PG27 -10875.468287  22577.325663  -8412.519999    -34.137474
PG28 -22277.786528   6095.791350  13105.901197   -427.223449
PG29 -14500.267451  -6121.923333  21371.324865   -574.946978
PG30  25708.213824   -816.877555  -7002.226044   -312.826652
PG32 -20164.901436  13894.311822  -9811.951959   -592.677085
PR01  11964.109802 -18896.661856  12252.583842     99.253375
PR02   6411.863081 -24305.859956  -4515.534563    -24.880915
PR03  -3764.968372 -16510.445853 -19062.546425    108.414284
PR04 -11234.229889     61.396353 -22876.594850    256.788294
PR05 -13002.217894  16507.482003 -14435.400280    138.331649
PR07   4134.853163  15963.159611  19473.653511     91.809982
PR08  11456.756835   -429.345061  22843.315887     -6.406699
PR09   4429.895850  17720.910266  17866.360965    211.640676
PR11  18695.267909  12094.662106 -12449.930644     10.680373
PR12  10279.432173  -4873.228008 -22803.002631     45.380979
PR14 -15815.673379 -19778.921497  -2947.247932     26.977628
PR15 -18445.755737 -10830.689248  13911.955778     75.410546
PR16 -10273.962222   4680.343037  22882.539773     29.507323
PR17 -12589.364197  -7398.306053  20941.766905    125.964923
PR18 -23810.294969    -14.185629   9118.812782    164.261514
PR19 -24118.905878   6045.379521  -5723.081488   -292.963125
PR20  -7940.286444  10889.146860 -21638.051806   -119.729302
PR21  11679.602736   7736.150175 -21302.327315   -138.237742
PR22  24269.175715     72.649006  -7830.015399     35.704179
PR24   6774.480946 -11696.904880  21646.966673    -73.836705
PR25  12636.143259   8014.644389 -20641.375089    -96.841102
PR26  10937.790660   1259.352744  23022.842494     47.268370
*  2024 09 28 10 45  0.00000000
PG01 -12141.419013   9725.803890  21113.228701    185.828041
PG02  12904.085868  13200.549411 -18750.318380   -348.625967
PG03  12846.677937  22968.042699   3837.015525    552.932290
PG04   6764.560068  14852.517351  20939.069446    451.953385
PG05  -3389.053242 -23715.937200  11212.749060   -188.059725
PG06  22478.553321  -5868.806367  13040.310751     -0.207290
PG07  25152.586076   7211.720010   6327.505978    -32.907364
PG08  -2318.783415  21980.976720 -14517.245208    367.364127
PG09  14969.358544   4665.398291  21351.013450    375.546473
PG10 -14153.303590   3917.779338 -21933.392407   -140.066131
PG11   9094.440935 -13348.910417  21106.143529   -739.212459
PG12  -9337.012778 -24881.802205    366.037535   -541.315426
PG13  11797.485344 -21662.846627  -9754.240016    678.814284
PG14  16401.280826     99.107605 -20882.996037    505.605277
PG15   -970.608476 -22217.116163 -14922.780966    209.464283
PG16  -2823.196739  21929.697075  14040.060215   -169.097432
PG17  20409.379722 -10808.858143 -12852.213587    613.067295
PG18 -25482.975680  -6389.352955   4687.391115   -655.704952
PG19  19997.599301 -16171.582879  -5814.233385    543.781849
PG20   4284.992478 -17910.816820  19261.349965    370.190303
PG21   7196.473438  14595.291610 -20775.636753    100.870032
PG22  12610.573362  -8989.010091 -21203.304064    -66.152982
PG23 -17596.597499  -9972.504475 -17301.868689    329.991982
PG24 -10569.491034 -14795.770474 -19932.898917   -486.109531
PG25 -16713.210968 -17607.265050  10734.404911    499.619206
PG26 -10408.949667  12858.329280  20552.491863     68.652359
PG27 -11565.482312  23033.627578  -5689.336399    -34.137848
PG28 -23611.982458   5740.113892  10715.453592   -427.235563
PG29 -12857.636356  -7973.361780  21795.922023   -574.944772
PG30  26323.466671   -432.804662  -4311.710810   -312.820155
PG32 -19562.352072  12719.205867 -12281.151367   -592.673514
PR01  11404.704750 -17314.763692  14847.922973     99.254545
PR02   6355.773503 -24706.473802  -1322.612810    -24.881088
PR03  -3206.791476 -18678.081809 -17069.135973    108.415152
PR04 -10355.742354  -2646.575219 -23138.087333    256.789908
PR05 -12284.423042  14709.543538 -16813.920521    138.332176
PR07   3553.987121  18170.413618  17551.411906     91.810669
PR08  10606.708070   2264.406491  23141.018895     -6.406681
PR09   2840.971986  16047.037916  19674.634311    211.642561
PR11  19729.466550  12993.488765  -9634.263863     10.679507
PR12  12204.399847  -2864.387818 -22186.263729     45.381512
PR14 -15510.927987 -19296.460092  -6083.455879     26.977674
PR15 -19584.944715 -11884.248791  11232.037380     75.410152
PR16 -12209.490545   2681.506932  22240.903460     29.507576
PR17  -9981.909808  -7905.543788  22124.452573    125.967961
PR18 -22497.878953   -105.147143  12003.803738    164.263221
PR19 -24583.768838   6347.797289  -2530.480629   -292.964416
PR20 -10476.828960  11428.348881 -20233.515529   -119.729960
PR21   9024.917954   8235.310071 -22380.876421   -138.240550
PR22  23112.042564    149.986428 -10767.496441     35.695377
PR24   9284.443858 -12322.492295  20325.083035    -73.838085
PR25  10043.974873   8434.622609 -21863.785253    -96.838347
PR26  10112.957823   3979.826454  23091.774705     47.286747
EOF
